[{"OBJECT_NAME":"TEVEL2-9","OBJECT_ID":"2025-052AD","EPOCH":"2026-03-09T16:51:18.321696","MEAN_MOTION":15.28633834,"ECCENTRICITY":0.000799,"INCLINATION":97.4057,"RA_OF_ASC_NODE":324.3929,"ARG_OF_PERICENTER":124.2475,"MEAN_ANOMALY":235.9522,"EPHEMERIS_TYPE":0,"CLASSIFICATION_TYPE":"U","NORAD_CAT_ID":63237,"ELEMENT_SET_NO":999,"REV_AT_EPOCH":5481,"BSTAR":0.00067240159,"MEAN_MOTION_DOT":0.00018694,"MEAN_MOTION_DDOT":0},{"OBJECT_NAME":"STARLINK-35762","OBJECT_ID":"2025-303K","EPOCH":"2026-03-09T23:08:54.457152","MEAN_MOTION":15.27601021,"ECCENTRICITY":6.381e-5,"INCLINATION":42.9981,"RA_OF_ASC_NODE":309.4666,"ARG_OF_PERICENTER":243.7066,"MEAN_ANOMALY":116.372,"EPHEMERIS_TYPE":0,"CLASSIFICATION_TYPE":"U","NORAD_CAT_ID":67172,"ELEMENT_SET_NO":999,"REV_AT_EPOCH":1277,"BSTAR":0.0012773401,"MEAN_MOTION_DOT":0.00035077,"MEAN_MOTION_DDOT":0}]
